ONEWEB-0320             
1 49190U 21083E   25202.93442885  .00000005  00000+0 -20866-4 0  9992
2 49190  87.9121  41.0775 0001769  87.7839 272.3495 13.18685364186453
ONEWEB-0321             
1 49191U 21083F   25202.90131805  .00000034  00000+0  51818-4 0  9999
2 49191  87.9278 340.2344 0002072  89.3088 270.8282 13.20770996193235
ONEWEB-0322             
1 49192U 21083G   25202.92551523 -.00000437  00000+0 -12329-2 0  9996
2 49192  87.8961  25.8747 0002080  82.1668 277.9697 13.13469978187565
ONEWEB-0324             
1 49193U 21083H   25202.92123772 -.00000029  00000+0 -10708-3 0  9995
2 49193  87.9122  41.0594 0001694  83.6743 276.4582 13.18685451186473
ONEWEB-0325             
1 49194U 21083J   25202.92453794  .00000071  00000+0  14657-3 0  9998
2 49194  87.9124  41.0756 0001878  86.7711 273.3636 13.18687640186488
ONEWEB-0326             
1 49195U 21083K   25202.93950733  .00000033  00000+0  50249-4 0  9991
2 49195  87.9118  41.0623 0001635  99.6610 260.4707 13.18687760186475
ONEWEB-0327             
1 49196U 21083L   25202.93924043  .00000006  00000+0 -16636-4 0  9990
2 49196  87.9116  41.0911 0001721  97.8898 262.2429 13.18685537186491
ONEWEB-0328             
1 49197U 21083M   25202.91536307 -.00000283  00000+0 -80974-3 0  9994
2 49197  87.8950  25.8177 0001664  87.5424 272.5896 13.13469089187544
